[{"OBJECT_NAME":"ORBCOMM FM32","OBJECT_ID":"1999-065C","EPOCH":"2026-03-09T01:02:29.080032","MEAN_MOTION":14.3696516,"ECCENTRICITY":0.00057226,"INCLINATION":45.0154,"RA_OF_ASC_NODE":287.2018,"ARG_OF_PERICENTER":281.4865,"MEAN_ANOMALY":78.534,"EPHEMERIS_TYPE":0,"CLASSIFICATION_TYPE":"U","NORAD_CAT_ID":25982,"ELEMENT_SET_NO":999,"REV_AT_EPOCH":37268,"BSTAR":0.00040930249,"MEAN_MOTION_DOT":1.082e-5,"MEAN_MOTION_DDOT":0},{"OBJECT_NAME":"METEOR 1-16 DEB","OBJECT_ID":"1974-011C","EPOCH":"2026-03-01T12:23:50.027136","MEAN_MOTION":14.42601971,"ECCENTRICITY":0.00301792,"INCLINATION":81.2291,"RA_OF_ASC_NODE":96.8082,"ARG_OF_PERICENTER":245.5961,"MEAN_ANOMALY":114.2078,"EPHEMERIS_TYPE":0,"CLASSIFICATION_TYPE":"U","NORAD_CAT_ID":42999,"ELEMENT_SET_NO":999,"REV_AT_EPOCH":49924,"BSTAR":0.0021697401,"MEAN_MOTION_DOT":7.259e-5,"MEAN_MOTION_DDOT":0}]
